{"fetched_at":"2026-03-29T16:36:15Z","count":15609,"tles":[{"name":"STARLINK-4809","line1":"1 53857U 22114AR  26087.80695239  .00000617  00000+0  56816-4 0  9996","line2":"2 53857  53.2163 207.8777 0001334  89.6365 270.4780 15.08843447195867","category":"Starlink"}]}