{
  "norad_id": 53857,
  "name": "STARLINK-4809",
  "history": [
    {
      "epoch": "2026-03-28T19:22:00.686496",
      "apogee_km": 540.6561117947222,
      "perigee_km": 538.8095939735904,
      "latitude_deg": -52.96006381607729,
      "longitude_deg": 3.1674294399563223,
      "semi_major_axis_km": 6917.869852884156,
      "eccentricity": 0.00013346,
      "inclination_deg": 53.2163,
      "raan_deg": 207.8777,
      "arg_perigee_deg": 89.6365,
      "mean_anomaly_deg": 270.478,
      "mean_motion_rev_day": 15.08843447
    }
  ]
}